[{"OBJECT_NAME":"STARLINK-30133","OBJECT_ID":"2023-079Q","EPOCH":"2026-03-09T22:00:01.999584","MEAN_MOTION":15.21613219,"ECCENTRICITY":0.00012374,"INCLINATION":43.0015,"RA_OF_ASC_NODE":104.9884,"ARG_OF_PERICENTER":256.9041,"MEAN_ANOMALY":41.2768,"EPHEMERIS_TYPE":0,"CLASSIFICATION_TYPE":"U","NORAD_CAT_ID":56837,"ELEMENT_SET_NO":999,"REV_AT_EPOCH":567,"BSTAR":0.036862138,"MEAN_MOTION_DOT":0.00916731,"MEAN_MOTION_DDOT":0},{"OBJECT_NAME":"JD 1","OBJECT_ID":"1984-012C","EPOCH":"2026-03-09T23:30:21.347136","MEAN_MOTION":13.74166667,"ECCENTRICITY":0.07563161,"INCLINATION":63.3111,"RA_OF_ASC_NODE":313.7014,"ARG_OF_PERICENTER":126.7081,"MEAN_ANOMALY":240.5908,"EPHEMERIS_TYPE":0,"CLASSIFICATION_TYPE":"U","NORAD_CAT_ID":14728,"ELEMENT_SET_NO":999,"REV_AT_EPOCH":33001,"BSTAR":0.00047185243,"MEAN_MOTION_DOT":3.937e-5,"MEAN_MOTION_DDOT":0}]
